GLOBALSTAR M035 [-]     
1 25851U 99037A   24032.59825267 -.00000107  00000+0 -16268-2 0  9998
2 25851  51.9952  93.5418 0013541 245.9844 263.5121 11.04528559 40839
GLOBALSTAR M032 [-]     
1 25852U 99037B   24031.97445474 -.00000053  00000+0  42627-3 0  9996
2 25852  51.9980 314.7877 0010020  41.4008 318.7550 11.19050649 78564
GLOBALSTAR M051 [-]     
1 25853U 99037C   24032.78009305 -.00000054  00000+0  44965-3 0  9994
2 25853  51.9780 170.4607 0002134  63.2610 296.8419 11.42196084 75094
GLOBALSTAR M048 [-]     
1 25872U 99041A   24032.41844993 -.00000063  00000+0  20047-3 0  9995
2 25872  51.9375  86.9661 0013057  38.6110  54.1906 11.33842880 68060
GLOBALSTAR M026 [-]     
1 25873U 99041B   24032.76086863 -.00000090  00000+0 -97004-3 0  9996
2 25873  51.9965 216.4237 0002103 117.9671  16.6480 11.06834515 92960
GLOBALSTAR M043 [-]     
1 25874U 99041C   24032.57706016 -.00000039  00000+0  86881-3 0  9998
2 25874  51.9375 174.2394 0013288 173.4165 312.3778 11.25674661 66380
